TEVEL2-2                
1 63219U 25052K   26068.64848259  .00020339  00000+0  69428-3 0  9991
2 63219  97.3987 324.7700 0004693 105.7930 254.3828 15.30343745 54855
STARLINK-35475          
1 65865U 25223M   26067.92912022  .00014747  00000+0  50901-3 0  9992
2 65865  53.1572 297.3932 0001193  75.0810 285.0323 15.30202900 24095
